STARLINK-31938          
1 59865U 24098H   26068.58644927  .00005385  00000+0  20509-3 0  9992
2 59865  43.0016 278.2884 0002368 258.0482 102.0104 15.27575057101831
TRANSPORTER-12 OBJECT BA
1 62657U 25009BA  26068.70118713  .00011330  00000+0  42733-3 0  9991
2 62657  97.3985 151.1390 0000403 234.6623 125.4579 15.27214003 63739
